{
  "type": "FeatureCollection",
  "features": [
    {
      "type": "Feature",
      "properties": {
        "norad_id": 40069,
        "name": "METEOR-M 2",
        "group": "weather",
        "lat": -47.82222638689764,
        "lon": 124.8691352916157,
        "alt_km": 824.252602193149,
        "timestamp": "2025-12-02T08:59:32.362189+00:00",
        "meta_object_name": "METEOR-M 2",
        "meta_object_id": "2014-037A",
        "meta_epoch": "2025-12-02T04:32:29.693184",
        "meta_mean_motion": 14.21379759,
        "meta_eccentricity": 0.0004673,
        "meta_inclination": 98.4891,
        "meta_ra_of_asc_node": 314.1788,
        "meta_arg_of_pericenter": 245.2749,
        "meta_mean_anomaly": 114.7943,
        "meta_ephemeris_type": 0,
        "meta_classification_type": "U",
        "meta_norad_cat_id": 40069,
        "meta_element_set_no": 999,
        "meta_rev_at_epoch": 59133,
        "meta_bstar": 0.00010402,
        "meta_mean_motion_dot": 1.85e-06,
        "meta_mean_motion_ddot": 0,
        "tle_line1": "1 40069U 14037A   25336.18923256  .00000185  00000+0  10402-3 0  9992",
        "tle_line2": "2 40069  98.4891 314.1788 0004673 245.2749 114.7943 14.21379759591333"
      },
      "geometry": {
        "type": "Point",
        "coordinates": [
          124.8691352916157,
          -47.82222638689764
        ]
      }
    },
    {
      "type": "Feature",
      "properties": {
        "norad_id": 40267,
        "name": "HIMAWARI-8",
        "group": "weather",
        "lat": 0.022000487737253906,
        "lon": -12.964280435168554,
        "alt_km": 35783.972122786116,
        "timestamp": "2025-12-02T08:59:32.362201+00:00",
        "meta_object_name": "HIMAWARI-8",
        "meta_object_id": "2014-060A",
        "meta_epoch": "2025-12-01T23:02:40.271712",
        "meta_mean_motion": 1.00272528,
        "meta_eccentricity": 0.0001254,
        "meta_inclination": 0.0469,
        "meta_ra_of_asc_node": 138.9757,
        "meta_arg_of_pericenter": 139.8382,
        "meta_mean_anomaly": 278.6103,
        "meta_ephemeris_type": 0,
        "meta_classification_type": "U",
        "meta_norad_cat_id": 40267,
        "meta_element_set_no": 999,
        "meta_rev_at_epoch": 4078,
        "meta_bstar": 0,
        "meta_mean_motion_dot": -2.54e-06,
        "meta_mean_motion_ddot": 0,
        "tle_line1": "1 40267U 14060A   25335.96018833 -.00000254  00000+0  00000+0 0  9996",
        "tle_line2": "2 40267   0.0469 138.9757 0001254 139.8382 278.6103  1.00272528 40789"
      },
      "geometry": {
        "type": "Point",
        "coordinates": [
          -12.964280435168554,
          0.022000487737253906
        ]
      }
    },
    {
      "type": "Feature",
      "properties": {
        "norad_id": 40367,
        "name": "FENGYUN 2G",
        "group": "weather",
        "lat": -3.9924927023444514,
        "lon": -54.014845040071535,
        "alt_km": 35777.635395586476,
        "timestamp": "2025-12-02T08:59:32.362212+00:00",
        "meta_object_name": "FENGYUN 2G",
        "meta_object_id": "2014-090A",
        "meta_epoch": "2025-12-01T19:25:27.039072",
        "meta_mean_motion": 1.00268232,
        "meta_eccentricity": 0.0003012,
        "meta_inclination": 5.1381,
        "meta_ra_of_asc_node": 75.2239,
        "meta_arg_of_pericenter": 193.0179,
        "meta_mean_anomaly": 193.7823,
        "meta_ephemeris_type": 0,
        "meta_classification_type": "U",
        "meta_norad_cat_id": 40367,
        "meta_element_set_no": 999,
        "meta_rev_at_epoch": 4002,
        "meta_bstar": 0,
        "meta_mean_motion_dot": -2.82e-06,
        "meta_mean_motion_ddot": 0,
        "tle_line1": "1 40367U 14090A   25335.80934073 -.00000282  00000+0  00000+0 0  9997",
        "tle_line2": "2 40367   5.1381  75.2239 0003012 193.0179 193.7823  1.00268232 40027"
      },
      "geometry": {
        "type": "Point",
        "coordinates": [
          -54.014845040071535,
          -3.9924927023444514
        ]
      }
    },
    {
      "type": "Feature",
      "properties": {
        "norad_id": 40732,
        "name": "METEOSAT-11 (MSG-4)",
        "group": "weather",
        "lat": 1.5775753126812244,
        "lon": -144.18017387748847,
        "alt_km": 35783.233556620995,
        "timestamp": "2025-12-02T08:59:32.362225+00:00",
        "meta_object_name": "METEOSAT-11 (MSG-4)",
        "meta_object_id": "2015-034A",
        "meta_epoch": "2025-12-02T03:33:27.033120",
        "meta_mean_motion": 1.00277401,
        "meta_eccentricity": 2.62e-05,
        "meta_inclination": 2.7091,
        "meta_ra_of_asc_node": 72.0283,
        "meta_arg_of_pericenter": 161.8961,
        "meta_mean_anomaly": 260.1399,
        "meta_ephemeris_type": 0,
        "meta_classification_type": "U",
        "meta_norad_cat_id": 40732,
        "meta_element_set_no": 999,
        "meta_rev_at_epoch": 524,
        "meta_bstar": 0,
        "meta_mean_motion_dot": 8.4e-07,
        "meta_mean_motion_ddot": 0,
        "tle_line1": "1 40732U 15034A   25336.14822955  .00000084  00000+0  00000+0 0  9994",
        "tle_line2": "2 40732   2.7091  72.0283 0000262 161.8961 260.1399  1.00277401  5244"
      },
      "geometry": {
        "type": "Point",
        "coordinates": [
          -144.18017387748847,
          1.5775753126812244
        ]
      }
    },
    {
      "type": "Feature",
      "properties": {
        "norad_id": 41105,
        "name": "ELEKTRO-L 2",
        "group": "weather",
        "lat": 5.408784190091743,
        "lon": -168.0713286948297,
        "alt_km": 35782.39270933384,
        "timestamp": "2025-12-02T08:59:32.362237+00:00",
        "meta_object_name": "ELEKTRO-L 2",
        "meta_object_id": "2015-074A",
        "meta_epoch": "2025-12-02T01:43:47.338752",
        "meta_mean_motion": 1.00269907,
        "meta_eccentricity": 0.0003937,
        "meta_inclination": 6.1965,
        "meta_ra_of_asc_node": 72.9528,
        "meta_arg_of_pericenter": 196.8313,
        "meta_mean_anomaly": 172.831,
        "meta_ephemeris_type": 0,
        "meta_classification_type": "U",
        "meta_norad_cat_id": 41105,
        "meta_element_set_no": 999,
        "meta_rev_at_epoch": 3653,
        "meta_bstar": 0,
        "meta_mean_motion_dot": -9.8e-07,
        "meta_mean_motion_ddot": 0,
        "tle_line1": "1 41105U 15074A   25336.07207568 -.00000098  00000+0  00000+0 0  9998",
        "tle_line2": "2 41105   6.1965  72.9528 0003937 196.8313 172.8310  1.00269907 36539"
      },
      "geometry": {
        "type": "Point",
        "coordinates": [
          -168.0713286948297,
          5.408784190091743
        ]
      }
    },
    {
      "type": "Feature",
      "properties": {
        "norad_id": 41752,
        "name": "INSAT-3DR",
        "group": "weather",
        "lat": -0.029900832188791932,
        "lon": -79.59173003496001,
        "alt_km": 35727.161593389304,
        "timestamp": "2025-12-02T08:59:32.362263+00:00",
        "meta_object_name": "INSAT-3DR",
        "meta_object_id": "2016-054A",
        "meta_epoch": "2025-12-02T02:08:59.925408",
        "meta_mean_motion": 1.00269631,
        "meta_eccentricity": 0.0014376,
        "meta_inclination": 0.0638,
        "meta_ra_of_asc_node": 89.7219,
        "meta_arg_of_pericenter": 179.0448,
        "meta_mean_anomaly": 268.7222,
        "meta_ephemeris_type": 0,
        "meta_classification_type": "U",
        "meta_norad_cat_id": 41752,
        "meta_element_set_no": 999,
        "meta_rev_at_epoch": 3384,
        "meta_bstar": 0,
        "meta_mean_motion_dot": -5.6e-07,
        "meta_mean_motion_ddot": 0,
        "tle_line1": "1 41752U 16054A   25336.08958247 -.00000056  00000+0  00000+0 0  9997",
        "tle_line2": "2 41752   0.0638  89.7219 0014376 179.0448 268.7222  1.00269631 33843"
      },
      "geometry": {
        "type": "Point",
        "coordinates": [
          -79.59173003496001,
          -0.029900832188791932
        ]
      }
    },
    {
      "type": "Feature",
      "properties": {
        "norad_id": 41836,
        "name": "HIMAWARI-9",
        "group": "weather",
        "lat": 0.02238410362295513,
        "lon": -12.899888291633921,
        "alt_km": 35779.59811596698,
        "timestamp": "2025-12-02T08:59:32.362279+00:00",
        "meta_object_name": "HIMAWARI-9",
        "meta_object_id": "2016-064A",
        "meta_epoch": "2025-12-01T20:24:38.619936",
        "meta_mean_motion": 1.00272319,
        "meta_eccentricity": 0.0002309,
        "meta_inclination": 0.0209,
        "meta_ra_of_asc_node": 319.9176,
        "meta_arg_of_pericenter": 338.5098,
        "meta_mean_anomaly": 219.4399,
        "meta_ephemeris_type": 0,
        "meta_classification_type": "U",
        "meta_norad_cat_id": 41836,
        "meta_element_set_no": 999,
        "meta_rev_at_epoch": 3323,
        "meta_bstar": 0,
        "meta_mean_motion_dot": 0,
        "meta_mean_motion_ddot": 0,
        "tle_line1": "1 41836U 16064A   25335.85044699  .00000000  00000+0  00000+0 0  9990",
        "tle_line2": "2 41836   0.0209 319.9176 0002309 338.5098 219.4399  1.00272319 33234"
      },
      "geometry": {
        "type": "Point",
        "coordinates": [
          -12.899888291633921,
          0.02238410362295513
        ]
      }
    }
  ]
}